NORAD_CAT_ID,OBJECT_NAME,OBJECT_TYPE,EPOCH,MEAN_MOTION,ECCENTRICITY,INCLINATION,RA_OF_ASC_NODE,ARG_OF_PERICENTER,MEAN_ANOMALY,BSTAR,MEAN_MOTION_DOT,MEAN_MOTION_DDOT,TLE_LINE0,TLE_LINE1,TLE_LINE2,SEMIMAJOR_AXIS,PERIOD,APOGEE,PERIGEE,DECAYED
55778.0,STARLINK-5816,PAYLOAD,2024-01-28 07:47:28,14.9833224,0.0002746,70.0011,9.1978,261.531,98.5537,1.7933e-05,1.21e-06,0.0,0 STARLINK-5816,1 55778U 23028AP  24028.32463200  .00000121  00000-0  17933-4 0  9994,2 55778  70.0011   9.1978 0002746 261.5310  98.5537 14.98332240 50990,6950.186,96.107,573.959,570.142,0.0
55778.0,STARLINK-5816,PAYLOAD,2024-01-28 22:12:40,14.98328893,0.0002747,70.0012,7.6825,263.8609,96.2237,4.5927e-05,4.55e-06,0.0,0 STARLINK-5816,1 55778U 23028AP  24028.92547297  .00000455  00000-0  45927-4 0  9993,2 55778  70.0012   7.6825 0002747 263.8609  96.2237 14.98328893 51084,6950.196,96.107,573.971,570.152,0.0
55778.0,STARLINK-5816,PAYLOAD,2024-01-29 07:49:29,14.98331163,0.0002779,70.0011,6.6721,270.9289,89.1552,6.7954e-05,7.18e-06,0.0,0 STARLINK-5816,1 55778U 23028AP  24029.32603141  .00000718  00000-0  67954-4 0  9995,2 55778  70.0011   6.6721 0002779 270.9289  89.1552 14.98331163 51147,6950.189,96.107,573.986,570.123,0.0
55778.0,STARLINK-5816,PAYLOAD,2024-01-29 22:14:41,14.98330137,0.0002686,70.0013,5.1572,273.2861,86.799,7.2791e-06,-6e-08,0.0,0 STARLINK-5816,1 55778U 23028AP  24029.92687357 -.00000006  00000-0  72791-5 0  9999,2 55778  70.0013   5.1572 0002686 273.2861  86.7990 14.98330137 51235,6950.192,96.107,573.924,570.191,0.0
55778.0,STARLINK-5816,PAYLOAD,2024-01-30 07:51:30,14.98329958,0.0002576,70.0018,4.1489,263.4186,96.668,3.7882e-06,-4.8e-07,0.0,0 STARLINK-5816,1 55778U 23028AP  24030.32743326 -.00000048  00000-0  37882-5 0  9992,2 55778  70.0018   4.1489 0002576 263.4186  96.6680 14.98329958 51296,6950.193,96.107,573.848,570.268,0.0
55778.0,STARLINK-5816,PAYLOAD,2024-01-30 22:16:42,14.98332048,0.0002718,70.0014,2.6329,273.5103,86.5745,1.3084e-05,6.3e-07,0.0,0 STARLINK-5816,1 55778U 23028AP  24030.92827141  .00000063  00000-0  13084-4 0  9999,2 55778  70.0014   2.6329 0002718 273.5103  86.5745 14.98332048 51381,6950.187,96.107,573.941,570.162,0.0
55778.0,STARLINK-5816,PAYLOAD,2024-01-31 07:53:30,14.98331478,0.0002623,70.0018,1.6239,265.1036,94.9824,8.6673e-06,1e-07,0.0,0 STARLINK-5816,1 55778U 23028AP  24031.32883096  .00000010  00000-0  86673-5 0  9992,2 55778  70.0018   1.6239 0002623 265.1036  94.9824 14.98331478 51445,6950.188,96.107,573.876,570.23,0.0
55778.0,STARLINK-5816,PAYLOAD,2024-01-31 19:06:27,14.98328906,0.0002743,70.0017,0.4447,272.6976,87.3869,-2.0123e-06,-1.17e-06,0.0,0 STARLINK-5816,1 55778U 23028AP  24031.79615290 -.00000117  00000-0 -20123-5 0  9990,2 55778  70.0017   0.4447 0002743 272.6976  87.3869 14.98328906 51516,6950.196,96.107,573.968,570.155,0.0
55778.0,STARLINK-5816,PAYLOAD,2024-02-01 07:55:32,14.98329422,0.0002654,70.0019,359.099,262.7976,97.2881,1.3834e-05,7.2e-07,0.0,0 STARLINK-5816,1 55778U 23028AP  24032.33023156  .00000072  00000-0  13834-4 0  9993,2 55778  70.0019 359.0990 0002654 262.7976  97.2881 14.98329422 51591,6950.195,96.107,573.904,570.215,0.0
55778.0,STARLINK-5816,PAYLOAD,2024-02-01 20:44:36,14.98332076,0.0002637,70.0018,357.752,260.3063,99.7798,2.4331e-05,1.97e-06,0.0,0 STARLINK-5816,1 55778U 23028AP  24032.86430897  .00000197  00000-0  24331-4 0  9997,2 55778  70.0018 357.7520 0002637 260.3063  99.7798 14.98332076 51678,6950.186,96.107,573.884,570.219,0.0
55778.0,STARLINK-5816,PAYLOAD,2024-02-02 07:57:32,14.98332366,0.0002605,70.0018,356.5729,261.4016,98.6847,3.0533e-05,2.71e-06,0.0,0 STARLINK-5816,1 55778U 23028AP  24033.33162825  .00000271  00000-0  30533-4 0  9997,2 55778  70.0018 356.5729 0002605 261.4016  98.6847 14.98332366 51744,6950.186,96.107,573.861,570.24,0.0
55778.0,STARLINK-5816,PAYLOAD,2024-02-02 22:22:45,14.98328104,0.000253,70.0019,355.0579,259.1933,100.8942,9.0806e-06,1.5e-07,0.0,0 STARLINK-5816,1 55778U 23028AP  24033.93247118  .00000015  00000-0  90806-5 0  9998,2 55778  70.0019 355.0579 0002530 259.1933 100.8942 14.98328104 51838,6950.199,96.107,573.822,570.305,0.0
55778.0,STARLINK-5816,PAYLOAD,2024-02-03 03:11:09,14.98326389,0.0002627,70.0016,354.5533,257.4081,102.6785,-1.346e-05,-2.53e-06,0.0,0 STARLINK-5816,1 55778U 23028AP  24034.13275288 -.00000253  00000-0 -13460-4 0  9996,2 55778  70.0016 354.5533 0002627 257.4081 102.6785 14.98326389 51862,6950.204,96.107,573.895,570.243,0.0
55778.0,STARLINK-5816,PAYLOAD,2024-02-03 06:23:25,14.98327186,0.0002619,70.0017,354.2168,257.3184,102.7682,-4.288e-06,-1.44e-06,0.0,0 STARLINK-5816,1 55778U 23028AP  24034.26627245 -.00000144  00000-0 -42880-5 0  9992,2 55778  70.0017 354.2168 0002619 257.3184 102.7682 14.98327186 51883,6950.202,96.107,573.887,570.246,0.0
55778.0,STARLINK-5816,PAYLOAD,2024-02-03 22:24:46,14.98331124,0.0002631,70.0017,352.5335,256.9807,103.1058,1.0875e-05,3.7e-07,0.0,0 STARLINK-5816,1 55778U 23028AP  24034.93386938  .00000037  00000-0  10875-4 0  9994,2 55778  70.0017 352.5335 0002631 256.9807 103.1058 14.98331124 51981,6950.189,96.107,573.883,570.226,0.0
55778.0,STARLINK-5816,PAYLOAD,2024-02-04 03:13:10,14.98331515,0.0002656,70.0016,352.028,263.3458,96.7399,6.9723e-06,-1e-07,0.0,0 STARLINK-5816,1 55778U 23028AP  24035.13414946 -.00000010  00000-0  69723-5 0  9997,2 55778  70.0016 352.0280 0002656 263.3458  96.7399 14.98331515 52019,6950.188,96.107,573.899,570.207,0.0
55778.0,STARLINK-5816,PAYLOAD,2024-02-04 06:25:26,14.98333381,0.0002673,70.0015,351.6914,265.9061,94.1793,2.6851e-05,2.27e-06,0.0,0 STARLINK-5816,1 55778U 23028AP  24035.26766777  .00000227  00000-0  26851-4 0  9996,2 55778  70.0015 351.6914 0002673 265.9061  94.1793 14.98333381 52039,6950.182,96.107,573.905,570.19,0.0
55778.0,STARLINK-5816,PAYLOAD,2024-02-04 22:26:47,14.98325796,0.0002661,70.0015,350.0083,266.2744,93.8111,1.0608e-05,3.4e-07,0.0,0 STARLINK-5816,1 55778U 23028AP  24035.93527284  .00000034  00000-0  10608-4 0  9997,2 55778  70.0015 350.0083 0002661 266.2744  93.8111 14.98325796 52130,6950.206,96.107,573.92,570.221,0.0
55778.0,STARLINK-5816,PAYLOAD,2024-02-05 03:15:11,14.98325001,0.0002679,70.0016,349.5032,266.0584,94.0269,-5.4523e-08,-9.4e-07,0.0,0 STARLINK-5816,1 55778U 23028AP  24036.13555405 -.00000094  00000-0 -54523-7 0  9991,2 55778  70.0016 349.5032 0002679 266.0584  94.0269 14.98325001 52166,6950.208,96.107,573.935,570.211,0.0
55778.0,STARLINK-5816,PAYLOAD,2024-02-05 06:27:27,14.98327683,0.0002656,70.0017,349.1668,266.3078,93.7777,3.0401e-05,2.7e-06,0.0,0 STARLINK-5816,1 55778U 23028AP  24036.26907188  .00000270  00000-0  30401-4 0  9994,2 55778  70.0017 349.1668 0002656 266.3078  93.7777 14.98327683 52184,6950.2,96.107,573.911,570.219,0.0
55778.0,STARLINK-5816,PAYLOAD,2024-02-05 22:28:48,14.98333261,0.0002686,70.0018,347.4839,267.6332,92.4519,9.0695e-06,1.5e-07,0.0,0 STARLINK-5816,1 55778U 23028AP  24036.93666872  .00000015  00000-0  90695-5 0  9999,2 55778  70.0018 347.4839 0002686 267.6332  92.4519 14.98333261 52286,6950.183,96.107,573.915,570.181,0.0
55778.0,STARLINK-5816,PAYLOAD,2024-02-06 03:17:12,14.98333418,0.0002684,70.0018,346.9788,267.1099,92.9753,1.1919e-05,4.9e-07,0.0,0 STARLINK-5816,1 55778U 23028AP  24037.13694812  .00000049  00000-0  11919-4 0  9995,2 55778  70.0018 346.9788 0002684 267.1099  92.9753 14.98333418 52319,6950.182,96.107,573.913,570.182,0.0
55778.0,STARLINK-5816,PAYLOAD,2024-02-06 06:29:28,14.98337173,0.0002711,70.0019,346.6425,268.8887,91.1962,4.8265e-05,4.83e-06,0.0,0 STARLINK-5816,1 55778U 23028AP  24037.27046440  .00000483  00000-0  48265-4 0  9994,2 55778  70.0019 346.6425 0002711 268.8887  91.1962 14.98337173 52336,6950.171,96.107,573.92,570.152,0.0
55778.0,STARLINK-5816,PAYLOAD,2024-02-06 22:30:49,14.98331288,0.0002721,70.0021,344.9593,274.6178,85.467,4.2974e-05,4.2e-06,0.0,0 STARLINK-5816,1 55778U 23028AP  24037.93806716  .00000420  00000-0  42974-4 0  9999,2 55778  70.0021 344.9593 0002721 274.6178  85.4670 14.98331288 52439,6950.189,96.107,573.945,570.163,0.0
55778.0,STARLINK-5816,PAYLOAD,2024-02-07 03:19:13,14.98332274,0.0002694,70.002,344.454,273.2628,86.8223,5.3758e-05,5.49e-06,0.0,0 STARLINK-5816,1 55778U 23028AP  24038.13834588  .00000549  00000-0  53758-4 0  9994,2 55778  70.0020 344.4540 0002694 273.2628  86.8223 14.98332274 52467,6950.186,96.107,573.923,570.178,0.0
55778.0,STARLINK-5816,PAYLOAD,2024-02-07 06:31:29,14.98334565,0.0002669,70.0021,344.1177,273.1625,86.9229,7.7353e-05,8.3e-06,0.0,0 STARLINK-5816,1 55778U 23028AP  24038.27186350  .00000830  00000-0  77353-4 0  9996,2 55778  70.0021 344.1177 0002669 273.1625  86.9229 14.98334565 52483,6950.179,96.107,573.899,570.189,0.0
55778.0,STARLINK-5816,PAYLOAD,2024-02-07 22:32:50,14.98329896,0.0002391,70.0026,342.4359,257.249,102.8402,-5.3168e-05,-7.27e-06,0.0,0 STARLINK-5816,1 55778U 23028AP  24038.93946894 -.00000727  00000-0 -53168-4 0  9991,2 55778  70.0026 342.4359 0002391 257.2490 102.8402 14.98329896 52589,6950.193,96.107,573.72,570.396,0.0
55778.0,STARLINK-5816,PAYLOAD,2024-02-08 06:33:30,14.98325195,0.0002429,70.0028,341.5946,250.4146,109.6751,-3.4483e-05,-5.04e-06,0.0,0 STARLINK-5816,1 55778U 23028AP  24039.27327184 -.00000504  00000-0 -34483-4 0  9996,2 55778  70.0028 341.5946 0002429 250.4146 109.6751 14.98325195 52634,6950.208,96.107,573.761,570.385,0.0
55778.0,STARLINK-5816,PAYLOAD,2024-02-08 22:34:51,14.98328042,0.0002607,70.002,339.9097,262.5561,97.5301,-1.2847e-05,-2.46e-06,0.0,0 STARLINK-5816,1 55778U 23028AP  24039.94086922 -.00000246  00000-0 -12847-4 0  9995,2 55778  70.0020 339.9097 0002607 262.5561  97.5301 14.98328042 52738,6950.199,96.107,573.876,570.252,0.0
55778.0,STARLINK-5816,PAYLOAD,2024-02-09 04:59:23,14.98330988,0.0002387,70.0025,339.2361,264.8042,95.2845,4.0186e-05,3.87e-06,0.0,0 STARLINK-5816,1 55778U 23028AP  24040.20790653  .00000387  00000-0  40186-4 0  9990,2 55778  70.0025 339.2361 0002387 264.8042  95.2845 14.98330988 52778,6950.19,96.107,573.714,570.396,0.0
